[{"OBJECT_NAME":"JY1SAT (JO-97)","OBJECT_ID":"2018-099AX","EPOCH":"2026-03-09T16:28:19.890048","MEAN_MOTION":15.30302629,"ECCENTRICITY":0.00047232,"INCLINATION":97.4249,"RA_OF_ASC_NODE":131.3625,"ARG_OF_PERICENTER":256.6795,"MEAN_ANOMALY":103.3919,"EPHEMERIS_TYPE":0,"CLASSIFICATION_TYPE":"U","NORAD_CAT_ID":43803,"ELEMENT_SET_NO":999,"REV_AT_EPOCH":39839,"BSTAR":0.00060804308,"MEAN_MOTION_DOT":0.00017774,"MEAN_MOTION_DDOT":0},{"OBJECT_NAME":"STARLINK-35561","OBJECT_ID":"2025-236V","EPOCH":"2026-03-09T11:50:24.880128","MEAN_MOTION":15.30198348,"ECCENTRICITY":0.00013029,"INCLINATION":53.159,"RA_OF_ASC_NODE":104.845,"ARG_OF_PERICENTER":86.9151,"MEAN_ANOMALY":273.1999,"EPHEMERIS_TYPE":0,"CLASSIFICATION_TYPE":"U","NORAD_CAT_ID":66105,"ELEMENT_SET_NO":999,"REV_AT_EPOCH":2285,"BSTAR":0.00092198659,"MEAN_MOTION_DOT":0.00027045,"MEAN_MOTION_DDOT":0}]
